NORAD_CAT_ID,OBJECT_NAME,OBJECT_TYPE,EPOCH,MEAN_MOTION,ECCENTRICITY,INCLINATION,RA_OF_ASC_NODE,ARG_OF_PERICENTER,MEAN_ANOMALY,BSTAR,MEAN_MOTION_DOT,MEAN_MOTION_DDOT,TLE_LINE0,TLE_LINE1,TLE_LINE2,SEMIMAJOR_AXIS,PERIOD,APOGEE,PERIGEE,DECAYED
53773.0,STARLINK-4718,PAYLOAD,2023-09-22 15:47:28,15.08877164,0.0001298,53.2168,359.9519,64.7235,295.3891,0.0019924,0.00031596,0.0,0 STARLINK-4718,1 53773U 22111A   23265.65796402  .00031596  00000-0  19924-2 0  9990,2 53773  53.2168 359.9519 0001298  64.7235 295.3891 15.08877164 57028,6917.767,95.435,540.53,538.734,0.0
53773.0,STARLINK-4718,PAYLOAD,2023-09-22 18:58:14,15.0888767,0.0001281,53.2167,359.3571,64.7578,295.3547,0.0021657,0.00034393,0.0,0 STARLINK-4718,1 53773U 22111A   23265.79044002  .00034393  00000-0  21657-2 0  9991,2 53773  53.2167 359.3571 0001281  64.7578 295.3547 15.08887670 58146,6917.735,95.435,540.486,538.714,0.0
53773.0,STARLINK-4718,PAYLOAD,2023-09-22 23:44:23,15.08844777,8.76e-05,53.2169,358.465,80.515,279.5941,-0.00042597,-7.061e-05,0.0,0 STARLINK-4718,1 53773U 22111A   23265.98916217 -.00007061  00000-0 -42597-3 0  9999,2 53773  53.2169 358.4650 0000876  80.5150 279.5941 15.08844777 57071,6917.866,95.437,540.337,539.125,0.0
53773.0,STARLINK-4718,PAYLOAD,2023-09-23 12:27:28,15.08855159,0.0001216,53.2172,356.0862,77.2932,282.8196,0.0018176,0.0002877,0.0,0 STARLINK-4718,1 53773U 22111A   23266.51908387  .00028770  00000-0  18176-2 0  9991,2 53773  53.2172 356.0862 0001216  77.2932 282.8196 15.08855159 58250,6917.834,95.437,540.54,538.858,0.0
53773.0,STARLINK-4718,PAYLOAD,2023-09-24 10:42:52,15.08862473,0.000131,53.2171,351.9227,119.9386,240.1736,0.0018167,0.00028761,0.0,0 STARLINK-4718,1 53773U 22111A   23267.44644339  .00028761  00000-0  18167-2 0  9998,2 53773  53.2171 351.9227 0001310 119.9386 240.1736 15.08862473 57297,6917.812,95.436,540.583,538.77,0.0
53773.0,STARLINK-4718,PAYLOAD,2023-09-24 12:18:15,15.08854169,0.0001244,53.2175,351.6239,90.1012,270.0122,0.0011584,0.00018203,0.0,0 STARLINK-4718,1 53773U 22111A   23267.51268412  .00018203  00000-0  11584-2 0  9996,2 53773  53.2175 351.6239 0001244  90.1012 270.0122 15.08854169 58401,6917.837,95.437,540.563,538.842,0.0
53773.0,STARLINK-4718,PAYLOAD,2023-09-24 17:04:25,15.08858099,0.0001453,53.2174,350.7327,81.4437,278.672,0.00082562,0.00012883,0.0,0 STARLINK-4718,1 53773U 22111A   23267.71140194  .00012883  00000-0  82562-3 0  9997,2 53773  53.2174 350.7327 0001453  81.4437 278.6720 15.08858099 57339,6917.825,95.436,540.695,538.685,0.0
53773.0,STARLINK-4718,PAYLOAD,2023-09-25 08:58:16,15.08843883,0.0001469,53.2177,347.761,73.1667,286.9486,0.00028133,4.193e-05,0.0,0 STARLINK-4718,1 53773U 22111A   23268.37380518  .00004193  00000-0  28133-3 0  9995,2 53773  53.2177 347.7610 0001469  73.1667 286.9486 15.08843883 57430,6917.869,95.437,540.75,538.717,0.0
53773.0,STARLINK-4718,PAYLOAD,2023-09-25 12:09:02,15.08852264,0.0001477,53.2189,347.1635,92.782,267.3341,0.0005705,8.806e-05,0.0,0 STARLINK-4718,1 53773U 22111A   23268.50628182  .00008806  00000-0  57050-3 0  9997,2 53773  53.2189 347.1635 0001477  92.7820 267.3341 15.08852264 58551,6917.843,95.437,540.73,538.686,0.0
53773.0,STARLINK-4718,PAYLOAD,2023-09-25 16:55:11,15.08869615,0.0001484,53.219,346.2728,98.3471,261.7689,0.00098295,0.00015403,0.0,0 STARLINK-4718,1 53773U 22111A   23268.70499689  .00015403  00000-0  98295-3 0  9994,2 53773  53.2190 346.2728 0001484  98.3471 261.7689 15.08869615 57480,6917.79,95.436,540.681,538.628,0.0
53773.0,STARLINK-4718,PAYLOAD,2023-09-26 10:24:27,15.08825708,0.0001738,53.2192,342.9996,103.8061,256.3125,-2.5265e-05,-6.9e-06,0.0,0 STARLINK-4718,1 53773U 22111A   23269.43365145 -.00000690  00000-0 -25265-4 0  9996,2 53773  53.2192 342.9996 0001738 103.8061 256.3125 15.08825708 57593,6917.924,95.438,540.991,538.587,0.0
53773.0,STARLINK-4718,PAYLOAD,2023-09-26 11:59:50,15.08829645,0.0001532,53.2192,342.7035,94.1587,265.958,0.00020044,2.903e-05,0.0,0 STARLINK-4718,1 53773U 22111A   23269.49989226  .00002903  00000-0  20044-3 0  9990,2 53773  53.2192 342.7035 0001532  94.1587 265.9580 15.08829645 58701,6917.912,95.438,540.837,538.717,0.0
53773.0,STARLINK-4718,PAYLOAD,2023-09-26 15:10:37,15.0883379,0.0001611,53.2197,342.1092,92.8301,267.2875,0.00053507,8.236e-05,0.0,0 STARLINK-4718,1 53773U 22111A   23269.63237391  .00008236  00000-0  53507-3 0  9990,2 53773  53.2197 342.1092 0001611  92.8301 267.2875 15.08833790 58720,6917.899,95.438,540.879,538.65,0.0
53773.0,STARLINK-4718,PAYLOAD,2023-09-27 08:39:51,15.08861718,0.0001645,53.219,338.8404,91.9066,268.2115,0.0011823,0.0001859,0.0,0 STARLINK-4718,1 53773U 22111A   23270.36101164  .00018590  00000-0  11823-2 0  9998,2 53773  53.2190 338.8404 0001645  91.9066 268.2115 15.08861718 57736,6917.814,95.436,540.817,538.541,0.0
53773.0,STARLINK-4718,PAYLOAD,2023-09-27 11:50:37,15.08866695,0.0001616,53.2188,338.2472,85.192,274.9257,0.0011698,0.00018392,0.0,0 STARLINK-4718,1 53773U 22111A   23270.49348946  .00018392  00000-0  11698-2 0  9993,2 53773  53.2188 338.2472 0001616  85.1920 274.9257 15.08866695 58858,6917.799,95.436,540.782,538.546,0.0
53773.0,STARLINK-4718,PAYLOAD,2023-09-28 11:41:24,15.08841401,0.000149,53.2173,333.7907,92.1339,267.9823,0.00018097,2.593e-05,0.0,0 STARLINK-4718,1 53773U 22111A   23271.48709367  .00002593  00000-0  18097-3 0  9998,2 53773  53.2173 333.7907 0001490  92.1339 267.9823 15.08841401 57901,6917.876,95.437,540.772,538.71,0.0
53773.0,STARLINK-4718,PAYLOAD,2023-09-28 14:52:11,15.08840081,0.0001804,53.2178,333.1882,62.1284,297.9891,0.000321,4.824e-05,0.0,0 STARLINK-4718,1 53773U 22111A   23271.61957593  .00004824  00000-0  32100-3 0  9999,2 53773  53.2178 333.1882 0001804  62.1284 297.9891 15.08840081 59023,6917.88,95.438,540.993,538.497,0.0
53773.0,STARLINK-4718,PAYLOAD,2023-09-29 11:32:12,15.08847026,0.0001904,53.2174,329.3228,66.738,293.3812,0.0004818,7.39e-05,0.0,0 STARLINK-4718,1 53773U 22111A   23272.48069667  .00007390  00000-0  48180-3 0  9997,2 53773  53.2174 329.3228 0001904  66.7380 293.3812 15.08847026 58059,6917.859,95.437,541.041,538.407,0.0
53773.0,STARLINK-4718,PAYLOAD,2023-09-29 13:07:35,15.08848313,0.0001886,53.2178,329.0268,73.1452,286.9747,0.00049797,7.648e-05,0.0,0 STARLINK-4718,1 53773U 22111A   23272.54693604  .00007648  00000-0  49797-3 0  9999,2 53773  53.2178 329.0268 0001886  73.1452 286.9747 15.08848313 59163,6917.855,95.437,541.025,538.415,0.0
53773.0,STARLINK-4718,PAYLOAD,2023-09-29 16:18:21,15.08858629,0.0001646,53.2175,328.4298,84.9839,275.1341,0.00076991,0.00011993,0.0,0 STARLINK-4718,1 53773U 22111A   23272.67941167  .00011993  00000-0  76991-3 0  9997,2 53773  53.2175 328.4298 0001646  84.9839 275.1341 15.08858629 58080,6917.823,95.436,540.827,538.55,0.0
53773.0,STARLINK-4718,PAYLOAD,2023-09-30 11:22:58,15.08857203,0.0001487,53.2168,324.8615,94.2559,265.8603,0.00036439,5.519e-05,0.0,0 STARLINK-4718,1 53773U 22111A   23273.47428532  .00005519  00000-0  36439-3 0  9992,2 53773  53.2168 324.8615 0001487  94.2559 265.8603 15.08857203 58209,6917.828,95.436,540.721,538.664,0.0
53773.0,STARLINK-4718,PAYLOAD,2023-10-01 03:16:49,15.08846507,0.0001692,53.2164,321.888,89.4535,270.6651,0.00014897,2.084e-05,0.0,0 STARLINK-4718,1 53773U 22111A   23274.13668727  .00002084  00000-0  14897-3 0  9996,2 53773  53.2164 321.8880 0001692  89.4535 270.6651 15.08846507 58307,6917.86,95.437,540.896,538.555,0.0
53773.0,STARLINK-4718,PAYLOAD,2023-10-01 09:38:22,15.08842939,0.0001664,53.2157,320.6982,88.6525,271.4658,8.0082e-05,9.87e-06,0.0,0 STARLINK-4718,1 53773U 22111A   23274.40164833  .00000987  00000-0  80082-4 0  9995,2 53773  53.2157 320.6982 0001664  88.6525 271.4658 15.08842939 59445,6917.871,95.437,540.888,538.585,0.0
53773.0,STARLINK-4718,PAYLOAD,2023-10-01 20:46:04,15.08836349,0.0001568,53.2157,318.6185,81.9304,278.1866,2.9791e-05,1.86e-06,0.0,0 STARLINK-4718,1 53773U 22111A   23274.86533159  .00000186  00000-0  29791-4 0  9997,2 53773  53.2157 318.6185 0001568  81.9304 278.1866 15.08836349 59512,6917.892,95.438,540.841,538.672,0.0
53773.0,STARLINK-4718,PAYLOAD,2023-10-02 14:15:19,15.08840576,0.0001534,53.2177,315.3469,89.3944,270.7224,-2.8409e-05,-7.4e-06,0.0,0 STARLINK-4718,1 53773U 22111A   23275.59397354 -.00000740  00000-0 -28409-4 0  9996,2 53773  53.2177 315.3469 0001534  89.3944 270.7224 15.08840576 59623,6917.879,95.438,540.805,538.682,0.0
53773.0,STARLINK-4718,PAYLOAD,2023-10-03 02:58:24,15.08839692,0.0001798,53.2175,312.9681,85.8833,274.2364,0.00015756,2.22e-05,0.0,0 STARLINK-4718,1 53773U 22111A   23276.12389666  .00002220  00000-0  15756-3 0  9996,2 53773  53.2175 312.9681 0001798  85.8833 274.2364 15.08839692 58608,6917.881,95.438,540.99,538.502,0.0
53773.0,STARLINK-4718,PAYLOAD,2023-10-03 09:19:56,15.08849743,0.0001566,53.2171,311.7789,85.4364,274.6807,0.00029259,4.373e-05,0.0,0 STARLINK-4718,1 53773U 22111A   23276.38885193  .00004373  00000-0  29259-3 0  9994,2 53773  53.2171 311.7789 0001566  85.4364 274.6807 15.08849743 58646,6917.851,95.437,540.799,538.632,0.0
53773.0,STARLINK-4718,PAYLOAD,2023-10-03 14:06:06,15.08856335,0.0001664,53.2172,310.8863,86.7404,273.3778,0.00046013,7.046e-05,0.0,0 STARLINK-4718,1 53773U 22111A   23276.58757032  .00007046  00000-0  46013-3 0  9993,2 53773  53.2172 310.8863 0001664  86.7404 273.3778 15.08856335 59771,6917.83,95.437,540.847,538.544,0.0
53773.0,STARLINK-4718,PAYLOAD,2023-10-04 09:10:44,15.0884416,0.0001508,53.217,307.3182,89.7005,270.416,0.00016889,2.401e-05,0.0,0 STARLINK-4718,1 53773U 22111A   23277.38245574  .00002401  00000-0  16889-3 0  9993,2 53773  53.2170 307.3182 0001508  89.7005 270.4160 15.08844160 58798,6917.868,95.437,540.776,538.689,0.0
53773.0,STARLINK-4718,PAYLOAD,2023-10-04 18:43:02,15.08837373,0.0002181,53.2169,305.5335,81.4998,278.6241,-1.4379e-05,-5.17e-06,0.0,0 STARLINK-4718,1 53773U 22111A   23277.77989567 -.00000517  00000-0 -14379-4 0  9994,2 53773  53.2169 305.5335 0002181  81.4998 278.6241 15.08837373 59951,6917.888,95.438,541.262,538.245,0.0
